NORAD_CAT_ID,OBJECT_NAME,OBJECT_TYPE,EPOCH,MEAN_MOTION,ECCENTRICITY,INCLINATION,RA_OF_ASC_NODE,ARG_OF_PERICENTER,MEAN_ANOMALY,BSTAR,MEAN_MOTION_DOT,MEAN_MOTION_DDOT,TLE_LINE0,TLE_LINE1,TLE_LINE2,SEMIMAJOR_AXIS,PERIOD,APOGEE,PERIGEE,DECAYED
53411.0,STARLINK-4497,PAYLOAD,2024-02-29 17:49:32,15.08848331,0.0001313,53.217,191.3815,94.4496,265.6646,8.1798e-05,1.014e-05,0.0,0 STARLINK-4497,1 53411U 22097Z   24060.74274275  .00001014  00000-0  81798-4 0  9997,2 53411  53.2170 191.3815 0001313  94.4496 265.6646 15.08848331 87096,6917.855,95.437,540.628,538.812,0.0
53411.0,STARLINK-4497,PAYLOAD,2024-03-01 14:29:34,15.08836989,0.0001248,53.217,187.5192,95.7196,264.3939,4.9776e-05,5.04e-06,0.0,0 STARLINK-4497,1 53411U 22097Z   24061.60387153  .00000504  00000-0  49776-4 0  9996,2 53411  53.2170 187.5192 0001248  95.7196 264.3939 15.08836989 87221,6917.89,95.438,540.618,538.891,0.0
53411.0,STARLINK-4497,PAYLOAD,2024-03-01 16:04:57,15.08843806,0.0001342,53.2166,187.2216,89.9465,270.1681,4.9897e-05,5.06e-06,0.0,0 STARLINK-4497,1 53411U 22097Z   24061.67010750  .00000506  00000-0  49897-4 0  9995,2 53411  53.2166 187.2216 0001342  89.9465 270.1681 15.08843806 86740,6917.869,95.437,540.662,538.805,0.0
53411.0,STARLINK-4497,PAYLOAD,2024-03-02 14:20:20,15.08856963,0.0001373,53.2168,183.0588,93.1895,266.9254,-6.837e-05,-1.376e-05,0.0,0 STARLINK-4497,1 53411U 22097Z   24062.59746193 -.00001376  00000-0 -68370-4 0  9999,2 53411  53.2168 183.0588 0001373  93.1895 266.9254 15.08856963 87373,6917.829,95.436,540.643,538.744,0.0
53411.0,STARLINK-4497,PAYLOAD,2024-03-03 01:28:02,15.08848666,0.0001577,53.2182,180.9751,70.015,290.1012,-9.62e-06,-4.41e-06,0.0,0 STARLINK-4497,1 53411U 22097Z   24063.06114358 -.00000441  00000-0 -96200-5 0  9990,2 53411  53.2182 180.9751 0001577  70.0150 290.1012 15.08848666 86956,6917.854,95.437,540.81,538.628,0.0
53411.0,STARLINK-4497,PAYLOAD,2024-03-03 11:00:22,15.08835435,0.0001529,53.2176,179.1919,81.4745,278.642,6.2579e-05,7.08e-06,0.0,0 STARLINK-4497,1 53411U 22097Z   24063.45859091  .00000708  00000-0  62579-4 0  9998,2 53411  53.2176 179.1919 0001529  81.4745 278.6420 15.08835435 87010,6917.894,95.438,540.817,538.702,0.0
53411.0,STARLINK-4497,PAYLOAD,2024-03-03 14:11:08,15.08839802,0.0001573,53.2176,178.597,84.6693,275.4479,-7.2383e-06,-4.03e-06,0.0,0 STARLINK-4497,1 53411U 22097Z   24063.59107004 -.00000403  00000-0 -72383-5 0  9992,2 53411  53.2176 178.5970 0001573  84.6693 275.4479 15.08839802 87523,6917.881,95.438,540.834,538.658,0.0
53411.0,STARLINK-4497,PAYLOAD,2024-03-04 12:26:31,15.08855679,0.0001483,53.2173,174.433,83.7935,276.3226,6.5511e-05,7.55e-06,0.0,0 STARLINK-4497,1 53411U 22097Z   24064.51841441  .00000755  00000-0  65511-4 0  9997,2 53411  53.2173 174.4330 0001483  83.7935 276.3226 15.08855679 87175,6917.832,95.437,540.723,538.672,0.0
53411.0,STARLINK-4497,PAYLOAD,2024-03-04 14:01:53,15.08857734,0.0001498,53.2176,174.1356,85.3561,274.7602,8.1822e-05,1.015e-05,0.0,0 STARLINK-4497,1 53411U 22097Z   24064.58465202  .00001015  00000-0  81822-4 0  9994,2 53411  53.2176 174.1356 0001498  85.3561 274.7602 15.08857734 87671,6917.826,95.436,540.727,538.655,0.0
53411.0,STARLINK-4497,PAYLOAD,2024-03-05 13:52:43,15.08822837,0.0001435,53.2173,169.6751,97.4299,262.6856,-6.8172e-05,-1.372e-05,0.0,0 STARLINK-4497,1 53411U 22097Z   24065.57828484 -.00001372  00000-0 -68172-4 0  9990,2 53411  53.2173 169.6751 0001435  97.4299 262.6856 15.08822837 87829,6917.933,95.439,540.791,538.805,0.0
53411.0,STARLINK-4497,PAYLOAD,2024-03-06 12:08:06,15.08843189,0.0001412,53.2164,165.5137,97.4349,262.6804,2.607e-05,1.27e-06,0.0,0 STARLINK-4497,1 53411U 22097Z   24066.50563419  .00000127  00000-0  26070-4 0  9994,2 53411  53.2164 165.5137 0001412  97.4349 262.6804 15.08843189 87470,6917.871,95.437,540.712,538.759,0.0
53411.0,STARLINK-4497,PAYLOAD,2024-03-06 13:43:29,15.08845919,0.0001421,53.2168,165.2168,95.0455,265.07,9.5225e-05,1.228e-05,0.0,0 STARLINK-4497,1 53411U 22097Z   24066.57187304  .00001228  00000-0  95225-4 0  9997,2 53411  53.2168 165.2168 0001421  95.0455 265.0700 15.08845919 87977,6917.862,95.437,540.71,538.744,0.0
53411.0,STARLINK-4497,PAYLOAD,2024-03-06 23:15:48,15.08856781,0.0001353,53.217,163.4327,96.226,263.8886,0.00054484,8.398e-05,0.0,0 STARLINK-4497,1 53411U 22097Z   24066.96931044  .00008398  00000-0  54484-3 0  9994,2 53411  53.2170 163.4327 0001353  96.2260 263.8886 15.08856781 87541,6917.829,95.436,540.63,538.758,0.0
53411.0,STARLINK-4497,PAYLOAD,2024-03-07 13:34:17,15.08843207,0.0001545,53.2164,160.7563,86.7467,273.3702,0.00020353,2.953e-05,0.0,0 STARLINK-4497,1 53411U 22097Z   24067.56547900  .00002953  00000-0  20353-3 0  9994,2 53411  53.2164 160.7563 0001545  86.7467 273.3702 15.08843207 88129,6917.871,95.437,540.804,538.667,0.0
53411.0,STARLINK-4497,PAYLOAD,2024-03-08 11:49:41,15.08839949,0.0001713,53.2168,156.5923,80.2074,279.9111,0.00037943,5.756e-05,0.0,0 STARLINK-4497,1 53411U 22097Z   24068.49284394  .00005756  00000-0  37943-3 0  9999,2 53411  53.2168 156.5923 0001713  80.2074 279.9111 15.08839949 87770,6917.881,95.438,540.931,538.561,0.0
53411.0,STARLINK-4497,PAYLOAD,2024-03-09 11:40:28,15.08838603,0.0001406,53.2155,152.1318,90.5977,269.5176,0.00018275,2.622e-05,0.0,0 STARLINK-4497,1 53411U 22097Z   24069.48644527  .00002622  00000-0  18275-3 0  9993,2 53411  53.2155 152.1318 0001406  90.5977 269.5176 15.08838603 87920,6917.885,95.438,540.722,538.777,0.0
53411.0,STARLINK-4497,PAYLOAD,2024-03-10 11:31:15,15.08844554,0.0001503,53.215,147.6694,98.7806,261.3356,0.00027551,4.1e-05,0.0,0 STARLINK-4497,1 53411U 22097Z   24070.48004389  .00004100  00000-0  27551-3 0  9991,2 53411  53.2150 147.6694 0001503  98.7806 261.3356 15.08844554 88563,6917.866,95.437,540.771,538.692,0.0
53411.0,STARLINK-4497,PAYLOAD,2024-03-10 22:38:57,15.08847621,0.0001568,53.2158,145.5873,100.411,259.7059,0.00027385,4.074e-05,0.0,0 STARLINK-4497,1 53411U 22097Z   24070.94372222  .00004074  00000-0  27385-3 0  9991,2 53411  53.2158 145.5873 0001568 100.4110 259.7059 15.08847621 88634,6917.857,95.437,540.807,538.637,0.0
53411.0,STARLINK-4497,PAYLOAD,2024-03-11 05:00:30,15.08843275,0.0001596,53.2161,144.3971,114.8619,245.2539,0.00018668,2.685e-05,0.0,0 STARLINK-4497,1 53411U 22097Z   24071.20868254  .00002685  00000-0  18668-3 0  9996,2 53411  53.2161 144.3971 0001596 114.8619 245.2539 15.08843275 88182,6917.87,95.437,540.839,538.631,0.0
53411.0,STARLINK-4497,PAYLOAD,2024-03-11 11:22:02,15.08840016,0.0001342,53.216,143.2103,96.1382,263.9763,0.00019125,2.757e-05,0.0,0 STARLINK-4497,1 53411U 22097Z   24071.47364544  .00002757  00000-0  19125-3 0  9997,2 53411  53.2160 143.2103 0001342  96.1382 263.9763 15.08840016 88719,6917.88,95.438,540.674,538.817,0.0
53411.0,STARLINK-4497,PAYLOAD,2024-03-12 14:23:36,15.0884345,0.000137,53.2155,138.1562,79.4411,280.6735,0.00013536,1.867e-05,0.0,0 STARLINK-4497,1 53411U 22097Z   24072.59972301  .00001867  00000-0  13536-3 0  9998,2 53411  53.2155 138.1562 0001370  79.4411 280.6735 15.08843450 88397,6917.87,95.437,540.683,538.787,0.0
53411.0,STARLINK-4497,PAYLOAD,2024-03-12 20:45:08,15.08849326,0.0001318,53.216,136.9659,80.6589,279.4552,0.00014565,2.031e-05,0.0,0 STARLINK-4497,1 53411U 22097Z   24072.86467883  .00002031  00000-0  14565-3 0  9999,2 53411  53.2160 136.9659 0001318  80.6589 279.4552 15.08849326 88928,6917.852,95.437,540.629,538.805,0.0
53411.0,STARLINK-4497,PAYLOAD,2024-03-13 04:42:04,15.08833674,0.0001401,53.2157,135.4786,89.2006,270.9147,1.6234e-05,-3e-07,0.0,0 STARLINK-4497,1 53411U 22097Z   24073.19588663 -.00000030  00000-0  16234-4 0  9990,2 53411  53.2157 135.4786 0001401  89.2006 270.9147 15.08833674 88487,6917.9,95.438,540.734,538.796,0.0
53411.0,STARLINK-4497,PAYLOAD,2024-03-13 11:03:36,15.08840423,0.0001459,53.2159,134.2904,87.5022,272.6137,9.5586e-05,1.234e-05,0.0,0 STARLINK-4497,1 53411U 22097Z   24073.46084387  .00001234  00000-0  95586-4 0  9997,2 53411  53.2159 134.2904 0001459  87.5022 272.6137 15.08840423 89018,6917.879,95.438,540.753,538.735,0.0
53411.0,STARLINK-4497,PAYLOAD,2024-03-13 20:35:55,15.08849153,0.0001665,53.2173,132.5072,92.2729,267.8454,0.00018004,2.579e-05,0.0,0 STARLINK-4497,1 53411U 22097Z   24073.85827902  .00002579  00000-0  18004-3 0  9990,2 53411  53.2173 132.5072 0001665  92.2729 267.8454 15.08849153 88585,6917.852,95.437,540.869,538.566,0.0
53411.0,STARLINK-4497,PAYLOAD,2024-03-14 02:57:28,15.08843441,0.0002029,53.2162,131.3157,87.6231,272.4994,0.00012134,1.644e-05,0.0,0 STARLINK-4497,1 53411U 22097Z   24074.12324273  .00001644  00000-0  12134-3 0  9994,2 53411  53.2162 131.3157 0002029  87.6231 272.4994 15.08843441 88625,6917.87,95.437,541.139,538.331,0.0
53411.0,STARLINK-4497,PAYLOAD,2024-03-14 10:54:23,15.08838203,0.0001511,53.2158,129.8296,92.4769,267.6396,2.8868e-06,-2.42e-06,0.0,0 STARLINK-4497,1 53411U 22097Z   24074.45444326 -.00000242  00000-0  28868-5 0  9999,2 53411  53.2158 129.8296 0001511  92.4769 267.6396 15.08838203 89163,6917.886,95.438,540.796,538.706,0.0
53411.0,STARLINK-4497,PAYLOAD,2024-03-15 12:20:34,15.08842006,0.0001439,53.2151,125.0713,88.7726,271.3431,0.00013998,1.941e-05,0.0,0 STARLINK-4497,1 53411U 22097Z   24075.51428357  .00001941  00000-0  13998-3 0  9995,2 53411  53.2151 125.0713 0001439  88.7726 271.3431 15.08842006 88839,6917.874,95.437,540.735,538.744,0.0
53411.0,STARLINK-4497,PAYLOAD,2024-03-16 12:11:21,15.08841272,0.000144,53.2154,120.6097,89.0472,271.0685,0.00013365,1.84e-05,0.0,0 STARLINK-4497,1 53411U 22097Z   24076.50788631  .00001840  00000-0  13365-3 0  9995,2 53411  53.2154 120.6097 0001440  89.0472 271.0685 15.08841272 88980,6917.877,95.437,540.738,538.745,0.0
53411.0,STARLINK-4497,PAYLOAD,2024-03-17 08:51:21,15.08856893,0.0001498,53.2153,116.7451,85.1162,275.0001,0.00034557,5.219e-05,0.0,0 STARLINK-4497,1 53411U 22097Z   24077.36899671  .00005219  00000-0  34557-3 0  9997,2 53411  53.2153 116.7451 0001498  85.1162 275.0001 15.08856893 89112,6917.829,95.436,540.73,538.657,0.0
